H-2A R/B                
1 28932U 06002B   26188.42043475  .00005562  00000+0  26593-3 0  9991
2 28932  98.2587 346.0860 0050268 192.4480 167.5515 15.18361756112592
RESURS-DK 1             
1 29228U 06021A   26188.26242769  .00001509  00000+0  90655-4 0  9998
2 29228  69.9330 287.5844 0006734 279.9257  80.1149 15.13300743105617
CZ-4B R/B               
1 29507U 06046C   26188.42571908  .00002871  00000+0  14313-3 0  9992
2 29507  97.5441 232.9706 0031828 209.3542 150.5904 15.17940399 78200
CZ-2C R/B               
1 31114U 07010B   26188.27861098  .00000058  00000+0  45957-4 0  9990
2 31114  98.4113 295.6484 0057960 307.2431  52.3468 14.20280494996694
COSMO-SKYMED 1          
1 31598U 07023A   26188.58649322  .00001750  00000+0  15651-3 0  9995
2 31598  97.8847  20.6149 0001068  87.7910 272.3434 14.97196663 32844
COSMOS 2428             
1 31792U 07029A   26188.32053255  .00000148  00000+0  10517-3 0  9999
2 31792  70.9381 312.2043 0007169  96.3524 263.8414 14.12930580980995
SL-16 R/B               
1 31793U 07029B   26188.25283769 -.00000189  00000+0 -73054-4 0  9990
2 31793  70.9756 281.0487 0002212 258.8023 131.6111 14.14851115982288
KORONAS-FOTON           
1 33504U 09003A   26188.40314724  .00008451  00000+0  17101-3 0  9997
2 33504  82.4299 151.1642 0012593  86.3546 273.9143 15.46165201964226
CZ-2C R/B               
1 37731U 11030B   26188.32240141  .00001023  00000+0  13445-3 0  9993
2 37731  97.8664 143.3467 0051290 322.3979 201.4057 14.81521163807807
H-2A R/B                
1 38341U 12025E   26188.49325656  .00002255  00000+0  20469-3 0  9991
2 38341  98.4844 165.3151 0042100 281.0798  78.5688 14.95821898766121
SHIJIAN-16 (SJ-16)      
1 39358U 13057A   26188.61543038  .00001152  00000+0  11437-3 0  9996
2 39358  74.9740 317.9911 0016118 183.0730 177.0362 14.92656555689390
SL-4 R/B                
1 39679U 14021B   26188.21709357  .00007478  00000+0  15631-3 0  9995
2 39679  51.6052 112.6158 0090169 179.1517 180.9637 15.42367585674709
ALOS-2                  
1 39766U 14029A   26188.56429492  .00001751  00000+0  24132-3 0  9991
2 39766  97.9222 285.4371 0001600  91.7523 268.3872 14.79472595654596
YAOGAN-29               
1 41038U 15069A   26188.62052782  .00000091  00000+0  17861-4 0  9990
2 41038  98.0020 217.2846 0001348  20.5675 339.5592 14.83101476573655
ASTRO-H (HITOMI)        
1 41337U 16012A   26188.45252774  .00002149  00000+0  12121-3 0  9994
2 41337  30.9999 303.3012 0009537  97.0215 263.1509 15.10610268570355
HXMT (HUIYAN)           
1 42758U 17034A   26188.59051266  .00003122  00000+0  15754-3 0  9992
2 42758  43.0143  69.4167 0032766 274.4367  85.2738 15.18641462500762
SAOCOM 1A               
1 43641U 18076A   26188.59171556 -.00000109  00000+0 -71812-5 0  9999
2 43641  97.8890  15.0436 0001498  80.9968 279.1414 14.82162514419121
H-2A R/B                
1 43682U 18084L   26187.74546264  .00016966  00000+0  34746-3 0  9990
2 43682  98.8544  70.9182 0021027 331.7008  28.3092 15.45963852424141
SAOCOM 1B               
1 46265U 20059A   26188.62295481  .00000800  00000+0  10703-3 0  9992
2 46265  97.8895  14.1702 0001616  81.9735 278.1661 14.82156877316519
CSS (TIANHE)            
1 48274U 21035A   26188.45886303  .00008899  00000+0  11943-3 0  9992
2 48274  41.4676 198.7215 0002931 276.4067  83.6437 15.58027856296336
COSMOS 2550             
1 48865U 21056A   26188.62982817  .00000877  00000+0  32522-4 0  9992
2 48865  67.1432  38.0686 0008436 272.1320  87.8868 15.33774334281854
CZ-2C R/B               
1 52794U 22058K   26187.93861576  .00033068  00000+0  34776-3 0  9992
2 52794  50.1851  60.6377 0030986 348.4599  11.5661 15.63350675228739
CZ-2C R/B               
1 54039U 22132E   26188.00389473  .00055302  00000+0  38503-3 0  9996
2 54039  97.2901 195.9465 0011199  16.5750 343.5878 15.74131032209067
GSLV R/B                
1 54149U 22138AN  26188.23420001  .00002756  00000+0  23356-3 0  9997
2 54149  87.3813 126.2522 0024142  78.2016 282.1922 14.97357019201816
XRISM                   
1 57800U 23137A   26188.51592358  .00002494  00000+0  13373-3 0  9997
2 57800  31.0012 227.9044 0007812 169.3138 190.7668 15.12636757155940
ACS3                    
1 59588U 24077B   26188.22286898  .00029668  00000+0  20728-1 0  9995
2 59588  97.1721 102.5640 0113937  45.7286 315.3161 13.95267619110830
SPACEMOBILE-003         
1 61045U 24163A   26177.81235899  .00001689  00000+0  90246-4 0  9998
2 61045  52.9744 265.1828 0005991 141.0621 219.0806 15.20822722 99230
SPACEMOBILE-005         
1 61046U 24163B   26188.57326855  .00003400  00000+0  16697-3 0  9997
2 61046  52.9812 215.6355 0007892 171.2745 188.8388 15.20769377100862
SPACEMOBILE-001         
1 61047U 24163C   26188.50607943  .00001273  00000+0  71651-4 0  9999
2 61047  52.9752 215.6585 0007752 171.0836 189.0297 15.20810880100852
SPACEMOBILE-002         
1 61048U 24163D   26188.55582850  .00002498  00000+0  12630-3 0  9995
2 61048  52.9752 215.4702 0007329 175.4334 184.6729 15.20854546100862
