OBJECT_NAME,OBJECT_ID,EPOCH,MEAN_MOTION,ECCENTRICITY,INCLINATION,RA_OF_ASC_NODE,ARG_OF_PERICENTER,MEAN_ANOMALY,EPHEMERIS_TYPE,CLASSIFICATION_TYPE,NORAD_CAT_ID,ELEMENT_SET_NO,REV_AT_EPOCH,BSTAR,MEAN_MOTION_DOT,MEAN_MOTION_DDOT
H-2A R/B,2006-002B,2026-07-07T10:05:25.562400,15.18361756,.00502683,98.2587,346.0860,192.4480,167.5515,0,U,28932,999,11259,.26592532E-3,.5562E-4,0
RESURS-DK 1,2006-021A,2026-07-07T06:17:53.752416,15.13300743,.00067347,69.9330,287.5844,279.9257,80.1149,0,U,29228,999,10561,.9065456E-4,.1509E-4,0
CZ-4B R/B,2006-046C,2026-07-07T10:13:02.128512,15.17940399,.00318281,97.5441,232.9706,209.3542,150.5904,0,U,29507,999,7820,.14313209E-3,.2871E-4,0
CZ-2C R/B,2007-010B,2026-07-07T06:41:11.988672,14.20280494,.00579608,98.4113,295.6484,307.2431,52.3468,0,U,31114,999,99669,.45956906E-4,.58E-6,0
COSMO-SKYMED 1,2007-023A,2026-07-07T14:04:33.014208,14.97196663,.00010685,97.8847,20.6149,87.7910,272.3434,0,U,31598,999,3284,.15650976E-3,.175E-4,0
COSMOS 2428,2007-029A,2026-07-07T07:41:34.012320,14.12930580,.00071698,70.9381,312.2043,96.3524,263.8414,0,U,31792,999,98099,.10517136E-3,.148E-5,0
SL-16 R/B,2007-029B,2026-07-07T06:04:05.176416,14.14851115,.0002212,70.9756,281.0487,258.8023,131.6111,0,U,31793,999,98228,-.73054353E-4,-.189E-5,0
KORONAS-FOTON,2009-003A,2026-07-07T09:40:31.921536,15.46165201,.00125931,82.4299,151.1642,86.3546,273.9143,0,U,33504,999,96422,.17100987E-3,.8451E-4,0
CZ-2C R/B,2011-030B,2026-07-07T07:44:15.481824,14.81521163,.00512903,97.8664,143.3467,322.3979,201.4057,0,U,37731,999,80780,.13445122E-3,.1023E-4,0
H-2A R/B,2012-025E,2026-07-07T11:50:17.366784,14.95821898,.00421004,98.4844,165.3151,281.0798,78.5688,0,U,38341,999,76612,.20469202E-3,.2255E-4,0
SHIJIAN-16 (SJ-16),2013-057A,2026-07-07T14:46:13.184832,14.92656555,.00161188,74.9740,317.9911,183.0730,177.0362,0,U,39358,999,68939,.11437187E-3,.1152E-4,0
SL-4 R/B,2014-021B,2026-07-07T05:12:36.884448,15.42367585,.00901696,51.6052,112.6158,179.1517,180.9637,0,U,39679,999,67470,.15630977E-3,.7478E-4,0
ALOS-2,2014-029A,2026-07-07T13:32:35.081088,14.79472595,.00016004,97.9222,285.4371,91.7523,268.3872,0,U,39766,999,65459,.24132264E-3,.1751E-4,0
YAOGAN-29,2015-069A,2026-07-07T14:53:33.603648,14.83101476,.00013484,98.0020,217.2846,20.5675,339.5592,0,U,41038,999,57365,.17861026E-4,.91E-6,0
ASTRO-H (HITOMI),2016-012A,2026-07-07T10:51:38.396736,15.10610268,.00095371,30.9999,303.3012,97.0215,263.1509,0,U,41337,999,57035,.12121116E-3,.2149E-4,0
HXMT (HUIYAN),2017-034A,2026-07-07T14:10:20.293824,15.18641462,.00327662,43.0143,69.4167,274.4367,85.2738,0,U,42758,999,50076,.15753511E-3,.3122E-4,0
SAOCOM 1A,2018-076A,2026-07-07T14:12:04.224384,14.82162514,.00014981,97.8890,15.0436,80.9968,279.1414,0,U,43641,999,41912,-.7181186E-5,-.109E-5,0
H-2A R/B,2018-084L,2026-07-06T17:53:27.972096,15.45963852,.00210272,98.8544,70.9182,331.7008,28.3092,0,U,43682,999,42414,.34745632E-3,.16966E-3,0
SAOCOM 1B,2020-059A,2026-07-07T14:57:03.295584,14.82156877,.00016165,97.8895,14.1702,81.9735,278.1661,0,U,46265,999,31651,.10703139E-3,.8E-5,0
CSS (TIANHE),2021-035A,2026-07-07T11:00:45.765792,15.58027856,.00029311,41.4676,198.7215,276.4067,83.6437,0,U,48274,999,29633,.11943047E-3,.8899E-4,0
COSMOS 2550,2021-056A,2026-07-07T15:06:57.153888,15.33774334,.00084365,67.1432,38.0686,272.1320,87.8868,0,U,48865,999,28185,.32522422E-4,.877E-5,0
CZ-2C R/B,2022-058K,2026-07-06T22:31:36.401664,15.63350675,.00309869,50.1851,60.6377,348.4599,11.5661,0,U,52794,999,22873,.34776051E-3,.33068E-3,0
CZ-2C R/B,2022-132E,2026-07-07T00:05:36.504672,15.74131032,.00111995,97.2901,195.9465,16.5750,343.5878,0,U,54039,999,20906,.38502883E-3,.55302E-3,0
GSLV R/B,2022-138AN,2026-07-07T05:37:14.880864,14.97357019,.00241428,87.3813,126.2522,78.2016,282.1922,0,U,54149,999,20181,.23356342E-3,.2756E-4,0
XRISM,2023-137A,2026-07-07T12:22:55.797312,15.12636757,.00078123,31.0012,227.9044,169.3138,190.7668,0,U,57800,999,15594,.13372739E-3,.2494E-4,0
ACS3,2024-077B,2026-07-07T05:20:55.879872,13.95267619,.01139379,97.1721,102.5640,45.7286,315.3161,0,U,59588,999,11083,.20727677E-1,.29668E-3,0
SPACEMOBILE-003,2024-163A,2026-06-26T19:29:47.816736,15.20822722,.0005991,52.9744,265.1828,141.0621,219.0806,0,U,61045,999,9923,.90246E-4,.1689E-4,0
SPACEMOBILE-005,2024-163B,2026-07-07T13:45:30.402720,15.20769377,.0007892,52.9812,215.6355,171.2745,188.8388,0,U,61046,999,10086,.16696982E-3,.34E-4,0
SPACEMOBILE-001,2024-163C,2026-07-07T12:08:45.262752,15.20810880,.00077523,52.9752,215.6585,171.0836,189.0297,0,U,61047,999,10085,.71650617E-4,.1273E-4,0
SPACEMOBILE-002,2024-163D,2026-07-07T13:20:23.582400,15.20854546,.00073295,52.9752,215.4702,175.4334,184.6729,0,U,61048,999,10086,.12629534E-3,.2498E-4,0
